[
    {
        "Altitude(m)": 572481.2102249908,
        "Argument of Periapsis(deg)": -0.007534386927657468,
        "Eccentricity": 0.0,
        "Inclination(deg)": 97.0,
        "Latitude(deg)": 54.81549082160674,
        "Longitude(deg)": -110.73542159701287,
        "Mean Anomaly(deg)": 55.33234775639583,
        "RAAN(deg)": 0.0019823512061702565,
        "Satellite Name": "Starlink Shell 3 1591",
        "Satellite Number": 1591,
        "Semi-Major Axis(m)": 6938478.169268562,
        "Time(s)": 190
    },
    {
        "Altitude(m)": 572617.9612978094,
        "Argument of Periapsis(deg)": -0.007930933608060494,
        "Eccentricity": 0.0,
        "Inclination(deg)": 97.0,
        "Latitude(deg)": 55.426044721436234,
        "Longitude(deg)": -111.00869149498868,
        "Mean Anomaly(deg)": 55.957823954100874,
        "RAAN(deg)": 0.0020866854801792176,
        "Satellite Name": "Starlink Shell 3 1591",
        "Satellite Number": 1591,
        "Semi-Major Axis(m)": 6938478.169268562,
        "Time(s)": 200
    },
    {
        "Altitude(m)": 572753.8417348863,
        "Argument of Periapsis(deg)": -0.008327480288463517,
        "Eccentricity": 0.0,
        "Inclination(deg)": 97.0,
        "Latitude(deg)": 56.03607775418411,
        "Longitude(deg)": -111.28920530732793,
        "Mean Anomaly(deg)": 56.583300151805915,
        "RAAN(deg)": 0.0021910197541881783,
        "Satellite Name": "Starlink Shell 3 1591",
        "Satellite Number": 1591,
        "Semi-Major Axis(m)": 6938478.169268562,
        "Time(s)": 210
    },
    {
        "Altitude(m)": 572888.7709602016,
        "Argument of Periapsis(deg)": -0.008724026968866542,
        "Eccentricity": 0.0,
        "Inclination(deg)": 97.0,
        "Latitude(deg)": 56.645565573322955,
        "Longitude(deg)": -111.57735954303666,
        "Mean Anomaly(deg)": 57.208776349510956,
        "RAAN(deg)": 0.002295354028197139,
        "Satellite Name": "Starlink Shell 3 1591",
        "Satellite Number": 1591,
        "Semi-Major Axis(m)": 6938478.169268562,
        "Time(s)": 220
    },
    {
        "Altitude(m)": 573022.6691367396,
        "Argument of Periapsis(deg)": -0.009120573649269567,
        "Eccentricity": 0.0,
        "Inclination(deg)": 97.0,
        "Latitude(deg)": 57.25448204402277,
        "Longitude(deg)": -111.8735791179489,
        "Mean Anomaly(deg)": 57.834252547216,
        "RAAN(deg)": 0.0023996883022061,
        "Satellite Name": "Starlink Shell 3 1591",
        "Satellite Number": 1591,
        "Semi-Major Axis(m)": 6938478.169268562,
        "Time(s)": 230
    },
    {
        "Altitude(m)": 573155.4572056385,
        "Argument of Periapsis(deg)": -0.009517120329672592,
        "Eccentricity": 0.0,
        "Inclination(deg)": 97.0,
        "Latitude(deg)": 57.862799074121,
        "Longitude(deg)": -112.17831940946812,
        "Mean Anomaly(deg)": 58.45972874492105,
        "RAAN(deg)": 0.0025040225762150608,
        "Satellite Name": "Starlink Shell 3 1591",
        "Satellite Number": 1591,
        "Semi-Major Axis(m)": 6938478.169268562,
        "Time(s)": 240
    },
    {
        "Altitude(m)": 573287.0569249142,
        "Argument of Periapsis(deg)": -0.009913667010075618,
        "Eccentricity": 0.0,
        "Inclination(deg)": 97.0,
        "Latitude(deg)": 58.47048642630017,
        "Longitude(deg)": -112.49207009976018,
        "Mean Anomaly(deg)": 59.0852049426261,
        "RAAN(deg)": 0.002608356850224022,
        "Satellite Name": "Starlink Shell 3 1591",
        "Satellite Number": 1591,
        "Semi-Major Axis(m)": 6938478.169268562,
        "Time(s)": 250
    },
    {
        "Altitude(m)": 573417.3909077058,
        "Argument of Periapsis(deg)": -0.010310213690478642,
        "Eccentricity": 0.0,
        "Inclination(deg)": 97.0,
        "Latitude(deg)": 59.07751150902341,
        "Longitude(deg)": -112.81535781607094,
        "Mean Anomaly(deg)": 59.71068114033113,
        "RAAN(deg)": 0.0027126911242329826,
        "Satellite Name": "Starlink Shell 3 1591",
        "Satellite Number": 1591,
        "Semi-Major Axis(m)": 6938478.169268562,
        "Time(s)": 260
    },
    {
        "Altitude(m)": 573546.3826600292,
        "Argument of Periapsis(deg)": -0.010706760370881667,
        "Eccentricity": 0.0,
        "Inclination(deg)": 97.0,
        "Latitude(deg)": 59.683839143415014,
        "Longitude(deg)": -113.14874912030268,
        "Mean Anomaly(deg)": 60.33615733803618,
        "RAAN(deg)": 0.0028170253982419437,
        "Satellite Name": "Starlink Shell 3 1591",
        "Satellite Number": 1591,
        "Semi-Major Axis(m)": 6938478.169268562,
        "Time(s)": 270
    },
    {
        "Altitude(m)": 573673.9566180883,
        "Argument of Periapsis(deg)": -0.011103307051284692,
        "Eccentricity": 0.0,
        "Inclination(deg)": 97.0,
        "Latitude(deg)": 60.28943130284957,
        "Longitude(deg)": -113.49285540559055,
        "Mean Anomaly(deg)": 60.96163353574123,
        "RAAN(deg)": 0.0029213596722509044,
        "Satellite Name": "Starlink Shell 3 1591",
        "Satellite Number": 1591,
        "Semi-Major Axis(m)": 6938478.169268562,
        "Time(s)": 280
    },
    {
        "Altitude(m)": 573800.0381850217,
        "Argument of Periapsis(deg)": -0.011499853731687715,
        "Eccentricity": 0.0,
        "Inclination(deg)": 97.0,
        "Latitude(deg)": 60.894246821507046,
        "Longitude(deg)": -113.84833672549786,
        "Mean Anomaly(deg)": 61.58710973344627,
        "RAAN(deg)": 0.003025693946259865,
        "Satellite Name": "Starlink Shell 3 1591",
        "Satellite Number": 1591,
        "Semi-Major Axis(m)": 6938478.169268562,
        "Time(s)": 290
    },
    {
        "Altitude(m)": 573924.5537671566,
        "Argument of Periapsis(deg)": -0.011896400412090741,
        "Eccentricity": 0.0,
        "Inclination(deg)": 97.0,
        "Latitude(deg)": 61.49824106757303,
        "Longitude(deg)": -114.21590612757161,
        "Mean Anomaly(deg)": 62.21258593115132,
        "RAAN(deg)": 0.0031300282202688257,
        "Satellite Name": "Starlink Shell 3 1591",
        "Satellite Number": 1591,
        "Semi-Major Axis(m)": 6938478.169268562,
        "Time(s)": 300
    },
    {
        "Altitude(m)": 574047.4308097196,
        "Argument of Periapsis(deg)": -0.012292947092493765,
        "Eccentricity": 0.0,
        "Inclination(deg)": 97.0,
        "Latitude(deg)": 62.10136557607302,
        "Longitude(deg)": -114.5963360717102,
        "Mean Anomaly(deg)": 62.838062128856365,
        "RAAN(deg)": 0.0032343624942777873,
        "Satellite Name": "Starlink Shell 3 1591",
        "Satellite Number": 1591,
        "Semi-Major Axis(m)": 6938478.169268562,
        "Time(s)": 310
    },
    {
        "Altitude(m)": 574168.5978319851,
        "Argument of Periapsis(deg)": -0.012689493772896788,
        "Eccentricity": 0.0,
        "Inclination(deg)": 97.0,
        "Latitude(deg)": 62.70356763551672,
        "Longitude(deg)": -114.99046398530459,
        "Mean Anomaly(deg)": 63.4635383265614,
        "RAAN(deg)": 0.003338696768286748,
        "Satellite Name": "Starlink Shell 3 1591",
        "Satellite Number": 1591,
        "Semi-Major Axis(m)": 6938478.169268562,
        "Time(s)": 320
    },
    {
        "Altitude(m)": 574287.984461858,
        "Argument of Periapsis(deg)": -0.013086040453299813,
        "Eccentricity": 0.0,
        "Inclination(deg)": 97.0,
        "Latitude(deg)": 63.30478982157554,
        "Longitude(deg)": -115.39919855746908,
        "Mean Anomaly(deg)": 64.08901452426645,
        "RAAN(deg)": 0.0034430310422957086,
        "Satellite Name": "Starlink Shell 3 1591",
        "Satellite Number": 1591,
        "Semi-Major Axis(m)": 6938478.169268562,
        "Time(s)": 330
    },
    {
        "Altitude(m)": 574405.521469874,
        "Argument of Periapsis(deg)": -0.01348258713370284,
        "Eccentricity": 0.0,
        "Inclination(deg)": 97.0,
        "Latitude(deg)": 63.90496946988433,
        "Longitude(deg)": -115.82352838833779,
        "Mean Anomaly(deg)": 64.71449072197149,
        "RAAN(deg)": 0.00354736531630467,
        "Satellite Name": "Starlink Shell 3 1591",
        "Satellite Number": 1591,
        "Semi-Major Axis(m)": 6938478.169268562,
        "Time(s)": 340
    },
    {
        "Altitude(m)": 574521.1408026032,
        "Argument of Periapsis(deg)": -0.013879133814105863,
        "Eccentricity": 0.0,
        "Inclination(deg)": 97.0,
        "Latitude(deg)": 64.50403807871189,
        "Longitude(deg)": -116.26453008668112,
        "Mean Anomaly(deg)": 65.33996691967654,
        "RAAN(deg)": 0.00365169959031363,
        "Satellite Name": "Starlink Shell 3 1591",
        "Satellite Number": 1591,
        "Semi-Major Axis(m)": 6938478.169268562,
        "Time(s)": 350
    },
    {
        "Altitude(m)": 574634.7756154271,
        "Argument of Periapsis(deg)": -0.01427568049450889,
        "Eccentricity": 0.0,
        "Inclination(deg)": 97.0,
        "Latitude(deg)": 65.10192063065358,
        "Longitude(deg)": -116.72337746617569,
        "Mean Anomaly(deg)": 65.96544311738157,
        "RAAN(deg)": 0.0037560338643225916,
        "Satellite Name": "Starlink Shell 3 1591",
        "Satellite Number": 1591,
        "Semi-Major Axis(m)": 6938478.169268562,
        "Time(s)": 360
    },
    {
        "Altitude(m)": 574746.3603047301,
        "Argument of Periapsis(deg)": -0.014672227174911913,
        "Eccentricity": 0.0,
        "Inclination(deg)": 97.0,
        "Latitude(deg)": 65.69853482059898,
        "Longitude(deg)": -117.20135351213676,
        "Mean Anomaly(deg)": 66.59091931508661,
        "RAAN(deg)": 0.0038603681383315522,
        "Satellite Name": "Starlink Shell 3 1591",
        "Satellite Number": 1591,
        "Semi-Major Axis(m)": 6938478.169268562,
        "Time(s)": 370
    }
]